     2.11           N: GPS NAV DATA                         RINEX VERSION / TYPE
teqc  2019Feb25                         20221121 12:23:31UTCPGM / RUN BY / DATE
OSX ker:10.11.6|Core i5|gcc 4.3 -m64|OSX ker:10.10+|=+      COMMENT
    6.5193D-09  2.2352D-08 -5.9605D-08 -1.1921D-07          ION ALPHA
    8.6016D+04  9.8304D+04 -6.5536D+04 -5.2429D+05          ION BETA
    0.000000000000D+00-5.329070518201D-15   233472     1533 DELTA-UTC: A0,A1,T,W
                                                            END OF HEADER
16 09  5 25  0  0  0.0 4.811445251107D-05-3.410605131648D-12 0.000000000000D+00
    4.000000000000D+01-5.593750000000D+00 4.443756528868D-09 2.297616429792D+00
   -1.862645149231D-08 5.360668990761D-03 1.065619289875D-05 5.153549854279D+03
    8.640000000000D+04 1.303851604462D-08-2.467379743036D+00 1.378357410431D-07
    9.684533674443D-01 1.788437500000D+02-3.567215973549D-01-7.737107995890D-09
    5.975248893100D-10 1.000000000000D+00 1.533000000000D+03 0.000000000000D+00
    2.000000000000D+00 0.000000000000D+00-9.778887033463D-09 4.000000000000D+01
    7.921800000000D+04 4.000000000000D+00
23 09  5 25  0  0  0.0 3.901170566678D-04 1.136868377216D-13 0.000000000000D+00
    1.090000000000D+02-2.156250000000D+01 4.649122226030D-09 3.099801256307D-02
   -1.044943928719D-06 6.102108280174D-03-1.294538378716D-06 5.153607789993D+03
    8.640000000000D+04 2.235174179077D-08 1.705246762304D+00-8.195638656616D-08
    9.701193487934D-01 4.064062500000D+02 2.883997958114D+00-8.607501394126D-09
    1.085759511956D-10 1.000000000000D+00 1.533000000000D+03 0.000000000000D+00
    2.800000000000D+00 0.000000000000D+00-2.002343535423D-08 1.090000000000D+02
    7.921800000000D+04 4.000000000000D+00
29 09  5 25  0  0  0.0 2.336967736483D-05 3.751665644813D-12 0.000000000000D+00
    4.200000000000D+01-2.468750000000D+00 4.980564603364D-09-2.506721527882D+00
   -1.993030309677D-07 3.440509783104D-03 4.889443516731D-06 5.153665437698D+03
    8.640000000000D+04-9.313225746155D-09-1.416648777519D+00 5.401670932770D-08
    9.594305934381D-01 2.842500000000D+02-1.323774510396D+00-8.067478900021D-09
   -1.692927660089D-10 1.000000000000D+00 1.533000000000D+03 0.000000000000D+00
    2.000000000000D+00 0.000000000000D+00-8.847564458847D-09 4.200000000000D+01
    7.921800000000D+04 4.000000000000D+00
31 09  5 25  0  0  0.0-6.097322329879D-05-7.958078640513D-13 0.000000000000D+00
    1.200000000000D+01-1.515937500000D+02 4.165887811663D-09-1.720162443899D+00
   -7.757917046547D-06 7.054793532006D-03 8.363276720047D-06 5.153723833084D+03
    8.640000000000D+04-1.806765794754D-07 2.745268096624D+00 1.322478055954D-07
    9.730352970887D-01 2.270312500000D+02-1.140011486603D+00-7.829254691312D-09
   -9.178953768839D-11 1.000000000000D+00 1.533000000000D+03 0.000000000000D+00
    2.000000000000D+00 0.000000000000D+00-1.303851604462D-08 1.200000000000D+01
    7.921800000000D+04 4.000000000000D+00
 2 09  5 25  0  0  0.0 1.547527499497D-04 6.821210263297D-13 0.000000000000D+00
    8.400000000000D+01 2.153125000000D+01 4.845916137572D-09 1.600675939949D-01
    9.387731552124D-07 9.067272883840D-03 1.081824302673D-05 5.153655939102D+03
    8.640000000000D+04 1.452863216400D-07-4.078048197591D-01-1.080334186554D-07
    9.415835707237D-01 1.632812500000D+02 2.821389208768D+00-8.116052351872D-09
   -7.936044853837D-10 1.000000000000D+00 1.533000000000D+03 0.000000000000D+00
    2.000000000000D+00 0.000000000000D+00-1.722946763039D-08 8.400000000000D+01
    7.921800000000D+04 4.000000000000D+00
24 09  5 25  0  0  0.0 1.914701424539D-04 2.955857780762D-12 0.000000000000D+00
    1.190000000000D+02 2.540625000000D+01 4.278035340201D-09 2.404684315794D+00
    1.417472958565D-06 6.695937481709D-03 1.168623566628D-05 5.153679447174D+03
    8.640000000000D+04-1.285225152969D-07-3.442019941718D-01 1.862645149231D-09
    9.510128999046D-01 1.500000000000D+02-6.486062236355D-01-7.588173220730D-09
   -8.046763751438D-10 1.000000000000D+00 1.533000000000D+03 0.000000000000D+00
    2.800000000000D+00 0.000000000000D+00-1.396983861923D-09 1.190000000000D+02
    7.921800000000D+04 4.000000000000D+00
25 09  5 25  0  0  0.0 4.291757941246D-04 1.898570189951D-11 0.000000000000D+00
    8.300000000000D+01-1.796875000000D+02 4.138743823864D-09 2.900188043239D+00
   -9.277835488319D-06 1.142107555643D-02 7.661059498787D-06 5.153660560608D+03
    8.640000000000D+04 2.458691596985D-07 2.652934415767D+00 1.341104507446D-07
    9.698613046734D-01 2.326875000000D+02-1.207075829451D+00-7.795681864298D-09
   -1.821504444400D-10 1.000000000000D+00 1.533000000000D+03 0.000000000000D+00
    2.800000000000D+00 0.000000000000D+00-7.450580596924D-09 8.300000000000D+01
    7.971600000000D+04 4.000000000000D+00
 6 09  5 25  0  0  0.0 1.358203589916D-04 1.466560206609D-11 0.000000000000D+00
    5.600000000000D+01-1.968750000000D+00 5.706309119251D-09 2.279271355155D+00
   -4.842877388000D-08 5.999919725582D-03 4.025176167488D-06 5.153691877365D+03
    8.640000000000D+04 7.264316082001D-08-1.488070693969D+00-9.872019290924D-08
    9.332605601741D-01 2.796250000000D+02-1.364391978825D+00-8.468567035523D-09
   -2.360812623036D-10 1.000000000000D+00 1.533000000000D+03 0.000000000000D+00
    2.000000000000D+00 0.000000000000D+00-4.656612873077D-09 5.600000000000D+01
    8.103600000000D+04 4.000000000000D+00
21 09  5 25  0  0  0.0 1.216307282448D-05-2.046363078989D-12 0.000000000000D+00
    5.500000000000D+01 1.631250000000D+01 4.693409785071D-09-2.515584027509D+00
    6.575137376785D-07 1.527913275640D-02 1.152046024799D-05 5.153617216110D+03
    8.640000000000D+04-3.352761268616D-08-3.762671923074D-01-1.620501279831D-07
    9.343523330108D-01 1.423437500000D+02-2.603179724862D+00-7.773895242512D-09
   -5.653806932324D-10 1.000000000000D+00 1.533000000000D+03 0.000000000000D+00
    2.000000000000D+00 0.000000000000D+00-1.210719347000D-08 5.500000000000D+01
    8.118600000000D+04 4.000000000000D+00
 7 09  5 25  0  0  0.0 1.828838139772D-05-6.821210263297D-13 0.000000000000D+00
    5.900000000000D+01-1.695000000000D+02 4.206246635627D-09-1.542997403007D+00
   -8.914619684219D-06 2.569028176367D-03 8.894130587578D-06 5.153678359985D+03
    8.640000000000D+04 3.725290298462D-08 2.747398999190D+00-5.029141902924D-08
    9.676610846597D-01 2.121250000000D+02 2.876366978036D+00-7.929973172356D-09
   -6.678849629467D-11 1.000000000000D+00 1.533000000000D+03 0.000000000000D+00
    2.000000000000D+00 0.000000000000D+00-1.071020960808D-08 5.900000000000D+01
    8.262600000000D+04 4.000000000000D+00
 3 09  5 25  0  0  0.0 3.974605351686D-04 5.115907697473D-12 0.000000000000D+00
    1.380000000000D+02 2.718750000000D+00 6.008821720115D-09-1.789858340841D-01
    2.756714820862D-07 1.184044685215D-02 4.261732101440D-06 5.153617382050D+03
    8.640000000000D+04-4.470348358154D-08-1.555675296852D+00 1.117587089539D-07
    9.257787567784D-01 2.747187500000D+02 8.998777556120D-01-8.887155900001D-09
   -1.182192100189D-10 1.000000000000D+00 1.533000000000D+03 0.000000000000D+00
    2.800000000000D+00 0.000000000000D+00-4.190951585770D-09 1.380000000000D+02
    8.271600000000D+04 4.000000000000D+00
19 09  5 25  0  0  0.0 2.467911690474D-05-1.136868377216D-12 0.000000000000D+00
    9.500000000000D+01-1.234375000000D+01 5.113427280485D-09 5.756429869381D-01
   -8.735805749893D-07 5.604220787063D-03 4.783272743225D-06 5.153593566895D+03
    8.640000000000D+04 6.332993507385D-08-1.368760212711D+00-1.862645149231D-09
    9.569349502846D-01 2.813750000000D+02-3.641096979218D-01-8.242129032043D-09
   -3.885876148053D-10 1.000000000000D+00 1.533000000000D+03 0.000000000000D+00
    2.000000000000D+00 0.000000000000D+00-1.443549990654D-08 9.500000000000D+01
    8.610600000000D+04 4.000000000000D+00
